[{"OBJECT_NAME":"TEVEL2-9","OBJECT_ID":"2025-052AD","EPOCH":"2026-04-26T11:02:47.671872","MEAN_MOTION":15.3029699,"ECCENTRICITY":0.00053275,"INCLINATION":97.4,"RA_OF_ASC_NODE":11.9354,"ARG_OF_PERICENTER":345.101,"MEAN_ANOMALY":15.0073,"EPHEMERIS_TYPE":0,"CLASSIFICATION_TYPE":"U","NORAD_CAT_ID":63237,"ELEMENT_SET_NO":999,"REV_AT_EPOCH":6211,"BSTAR":0.00069463826,"MEAN_MOTION_DOT":0.00020322,"MEAN_MOTION_DDOT":0},{"OBJECT_NAME":"TEVEL2-7","OBJECT_ID":"2025-052AE","EPOCH":"2026-04-26T14:56:45.790944","MEAN_MOTION":15.300486,"ECCENTRICITY":0.00053827,"INCLINATION":97.4002,"RA_OF_ASC_NODE":12.0336,"ARG_OF_PERICENTER":344.749,"MEAN_ANOMALY":15.3588,"EPHEMERIS_TYPE":0,"CLASSIFICATION_TYPE":"U","NORAD_CAT_ID":63238,"ELEMENT_SET_NO":999,"REV_AT_EPOCH":6213,"BSTAR":0.00066267946,"MEAN_MOTION_DOT":0.00019232,"MEAN_MOTION_DDOT":0},{"OBJECT_NAME":"TEVEL2-8","OBJECT_ID":"2025-052AF","EPOCH":"2026-04-26T11:59:27.028896","MEAN_MOTION":15.30025083,"ECCENTRICITY":0.00054512,"INCLINATION":97.4003,"RA_OF_ASC_NODE":11.8895,"ARG_OF_PERICENTER":345.9026,"MEAN_ANOMALY":14.2061,"EPHEMERIS_TYPE":0,"CLASSIFICATION_TYPE":"U","NORAD_CAT_ID":63239,"ELEMENT_SET_NO":999,"REV_AT_EPOCH":6211,"BSTAR":0.00067375434,"MEAN_MOTION_DOT":0.00019542,"MEAN_MOTION_DDOT":0},{"OBJECT_NAME":"HADES-ICM","OBJECT_ID":"2025-052BN","EPOCH":"2026-04-26T16:29:25.836576","MEAN_MOTION":15.77342184,"ECCENTRICITY":0.0003502,"INCLINATION":97.3831,"RA_OF_ASC_NODE":19.519,"ARG_OF_PERICENTER":134.0397,"MEAN_ANOMALY":226.1158,"EPHEMERIS_TYPE":0,"CLASSIFICATION_TYPE":"U","NORAD_CAT_ID":63492,"ELEMENT_SET_NO":999,"REV_AT_EPOCH":6265,"BSTAR":0.0023247,"MEAN_MOTION_DOT":0.00399074,"MEAN_MOTION_DDOT":0},{"OBJECT_NAME":"INNOSAT 16 (RS92S7)","OBJECT_ID":"2025-155C","EPOCH":"2026-04-26T13:33:12.553632","MEAN_MOTION":15.24866375,"ECCENTRICITY":0.00110397,"INCLINATION":97.4526,"RA_OF_ASC_NODE":83.8927,"ARG_OF_PERICENTER":18.7154,"MEAN_ANOMALY":341.4488,"EPHEMERIS_TYPE":0,"CLASSIFICATION_TYPE":"U","NORAD_CAT_ID":64878,"ELEMENT_SET_NO":999,"REV_AT_EPOCH":7280,"BSTAR":0.00031660066,"MEAN_MOTION_DOT":7.811e-5,"MEAN_MOTION_DDOT":0},{"OBJECT_NAME":"GEOSCAN 6 (RS92S6)","OBJECT_ID":"2025-155D","EPOCH":"2026-04-26T13:37:20.516448","MEAN_MOTION":15.29126714,"ECCENTRICITY":0.00081792,"INCLINATION":97.4521,"RA_OF_ASC_NODE":84.9719,"ARG_OF_PERICENTER":16.9055,"MEAN_ANOMALY":343.2456,"EPHEMERIS_TYPE":0,"CLASSIFICATION_TYPE":"U","NORAD_CAT_ID":64879,"ELEMENT_SET_NO":999,"REV_AT_EPOCH":7287,"BSTAR":0.00046914595,"MEAN_MOTION_DOT":0.00013209,"MEAN_MOTION_DDOT":0},{"OBJECT_NAME":"GEOSCAN 1 (RS92S1)","OBJECT_ID":"2025-155E","EPOCH":"2026-04-26T14:07:45.238656","MEAN_MOTION":15.29638902,"ECCENTRICITY":0.00080979,"INCLINATION":97.4519,"RA_OF_ASC_NODE":85.0994,"ARG_OF_PERICENTER":17.3121,"MEAN_ANOMALY":342.8393,"EPHEMERIS_TYPE":0,"CLASSIFICATION_TYPE":"U","NORAD_CAT_ID":64880,"ELEMENT_SET_NO":999,"REV_AT_EPOCH":7288,"BSTAR":0.00053185159,"MEAN_MOTION_DOT":0.00015227,"MEAN_MOTION_DDOT":0},{"OBJECT_NAME":"239ALFEROV (RS61S)","OBJECT_ID":"2025-155F","EPOCH":"2026-04-26T13:28:02.754336","MEAN_MOTION":15.31500872,"ECCENTRICITY":0.00076677,"INCLINATION":97.4521,"RA_OF_ASC_NODE":85.4727,"ARG_OF_PERICENTER":18.7793,"MEAN_ANOMALY":341.373,"EPHEMERIS_TYPE":0,"CLASSIFICATION_TYPE":"U","NORAD_CAT_ID":64881,"ELEMENT_SET_NO":999,"REV_AT_EPOCH":7290,"BSTAR":0.00061072686,"MEAN_MOTION_DOT":0.0001854,"MEAN_MOTION_DDOT":0},{"OBJECT_NAME":"GEOSCAN 2 (RS92S2)","OBJECT_ID":"2025-155Q","EPOCH":"2026-04-26T14:12:07.942176","MEAN_MOTION":15.29928813,"ECCENTRICITY":0.00069161,"INCLINATION":97.4518,"RA_OF_ASC_NODE":85.2339,"ARG_OF_PERICENTER":6.0229,"MEAN_ANOMALY":354.1093,"EPHEMERIS_TYPE":0,"CLASSIFICATION_TYPE":"U","NORAD_CAT_ID":64890,"ELEMENT_SET_NO":999,"REV_AT_EPOCH":7289,"BSTAR":0.00050837931,"MEAN_MOTION_DOT":0.00014677,"MEAN_MOTION_DDOT":0},{"OBJECT_NAME":"GEOSCAN 5 (RS92S5)","OBJECT_ID":"2025-155R","EPOCH":"2026-04-26T13:27:46.346976","MEAN_MOTION":15.31827578,"ECCENTRICITY":0.00068752,"INCLINATION":97.4513,"RA_OF_ASC_NODE":85.59,"ARG_OF_PERICENTER":27.5096,"MEAN_ANOMALY":332.6508,"EPHEMERIS_TYPE":0,"CLASSIFICATION_TYPE":"U","NORAD_CAT_ID":64891,"ELEMENT_SET_NO":999,"REV_AT_EPOCH":7291,"BSTAR":0.00060217707,"MEAN_MOTION_DOT":0.00018463,"MEAN_MOTION_DDOT":0},{"OBJECT_NAME":"GEOSCAN 4 (RS92S4)","OBJECT_ID":"2025-155S","EPOCH":"2026-04-26T14:45:45.901440","MEAN_MOTION":15.31954943,"ECCENTRICITY":0.00068865,"INCLINATION":97.4516,"RA_OF_ASC_NODE":85.6795,"ARG_OF_PERICENTER":27.6737,"MEAN_ANOMALY":332.487,"EPHEMERIS_TYPE":0,"CLASSIFICATION_TYPE":"U","NORAD_CAT_ID":64892,"ELEMENT_SET_NO":999,"REV_AT_EPOCH":7292,"BSTAR":0.00061839987,"MEAN_MOTION_DOT":0.0001904,"MEAN_MOTION_DDOT":0},{"OBJECT_NAME":"GEOSCAN 3 (RS92S3)","OBJECT_ID":"2025-155T","EPOCH":"2026-04-26T14:40:44.378400","MEAN_MOTION":15.33603076,"ECCENTRICITY":0.00066921,"INCLINATION":97.4505,"RA_OF_ASC_NODE":85.9703,"ARG_OF_PERICENTER":31.2518,"MEAN_ANOMALY":328.9121,"EPHEMERIS_TYPE":0,"CLASSIFICATION_TYPE":"U","NORAD_CAT_ID":64893,"ELEMENT_SET_NO":999,"REV_AT_EPOCH":7294,"BSTAR":0.00071960627,"MEAN_MOTION_DOT":0.00023357,"MEAN_MOTION_DDOT":0},{"OBJECT_NAME":"INNOSAT 3 (RS92S0)","OBJECT_ID":"2025-155U","EPOCH":"2026-04-26T14:13:25.491360","MEAN_MOTION":15.40235055,"ECCENTRICITY":0.00061182,"INCLINATION":97.4468,"RA_OF_ASC_NODE":87.0071,"ARG_OF_PERICENTER":39.402,"MEAN_ANOMALY":320.767,"EPHEMERIS_TYPE":0,"CLASSIFICATION_TYPE":"U","NORAD_CAT_ID":64894,"ELEMENT_SET_NO":999,"REV_AT_EPOCH":7301,"BSTAR":0.0010976813,"MEAN_MOTION_DOT":0.00044274,"MEAN_MOTION_DDOT":0},{"OBJECT_NAME":"KNACKSAT-2","OBJECT_ID":"1998-067XZ","EPOCH":"2026-04-26T06:09:00.396576","MEAN_MOTION":15.5563873,"ECCENTRICITY":0.00123624,"INCLINATION":51.6294,"RA_OF_ASC_NODE":194.7914,"ARG_OF_PERICENTER":5.5713,"MEAN_ANOMALY":354.5413,"EPHEMERIS_TYPE":0,"CLASSIFICATION_TYPE":"U","NORAD_CAT_ID":67683,"ELEMENT_SET_NO":999,"REV_AT_EPOCH":1218,"BSTAR":0.00063921905,"MEAN_MOTION_DOT":0.00044626,"MEAN_MOTION_DDOT":0}]
