TEVEL2-9                
1 63237U 25052AD  26116.46027398  .00020322  00000+0  69464-3 0  9990
2 63237  97.4000  11.9354 0005327 345.1010  15.0073 15.30296990 62117
TEVEL2-7                
1 63238U 25052AE  26116.62275221  .00019232  00000+0  66268-3 0  9996
2 63238  97.4002  12.0336 0005382 344.7490  15.3588 15.30048600 62139
TEVEL2-8                
1 63239U 25052AF  26116.49961839  .00019542  00000+0  67375-3 0  9993
2 63239  97.4003  11.8895 0005451 345.9026  14.2061 15.30025083 62115
HADES-ICM               
1 63492U 25052BN  26116.68710459  .00399074  00000+0  23247-2 0  9995
2 63492  97.3831  19.5190 0003502 134.0397 226.1158 15.77342184 62655
INNOSAT 16 (RS92S7)     
1 64878U 25155C   26116.56472863  .00007811  00000+0  31660-3 0  9993
2 64878  97.4526  83.8927 0011039  18.7154 341.4488 15.24866375 72801
GEOSCAN 6 (RS92S6)      
1 64879U 25155D   26116.56759857  .00013209  00000+0  46915-3 0  9992
2 64879  97.4521  84.9719 0008179  16.9055 343.2456 15.29126714 72872
GEOSCAN 1 (RS92S1)      
1 64880U 25155E   26116.58871804  .00015227  00000+0  53185-3 0  9992
2 64880  97.4519  85.0994 0008097  17.3121 342.8393 15.29638902 72889
239ALFEROV (RS61S)      
1 64881U 25155F   26116.56114299  .00018540  00000+0  61073-3 0  9995
2 64881  97.4521  85.4727 0007667  18.7793 341.3730 15.31500872 72902
GEOSCAN 2 (RS92S2)      
1 64890U 25155Q   26116.59175859  .00014677  00000+0  50838-3 0  9991
2 64890  97.4518  85.2339 0006916   6.0229 354.1093 15.29928813 72893
GEOSCAN 5 (RS92S5)      
1 64891U 25155R   26116.56095309  .00018463  00000+0  60218-3 0  9990
2 64891  97.4513  85.5900 0006875  27.5096 332.6508 15.31827578 72914
GEOSCAN 4 (RS92S4)      
1 64892U 25155S   26116.61511460  .00019040  00000+0  61840-3 0  9992
2 64892  97.4516  85.6795 0006886  27.6737 332.4870 15.31954943 72924
GEOSCAN 3 (RS92S3)      
1 64893U 25155T   26116.61162475  .00023357  00000+0  71961-3 0  9992
2 64893  97.4505  85.9703 0006692  31.2518 328.9121 15.33603076 72949
INNOSAT 3 (RS92S0)      
1 64894U 25155U   26116.59265615  .00044274  00000+0  10977-2 0  9990
2 64894  97.4468  87.0071 0006118  39.4020 320.7670 15.40235055 73014
KNACKSAT-2              
1 67683U 98067XZ  26116.25625459  .00044626  00000+0  63922-3 0  9990
2 67683  51.6294 194.7914 0012362   5.5713 354.5413 15.55638730 12189
